[
    {
        "Altitude(m)": 611967.1945134788,
        "Argument of Periapsis(deg)": 0.0,
        "Eccentricity": 0.0,
        "Inclination(deg)": 60.0,
        "Latitude(deg)": 59.14020880724776,
        "Longitude(deg)": 36.091915842611854,
        "Mean Anomaly(deg)": 98.18179999999998,
        "RAAN(deg)": 30.0,
        "Satellite Name": "Test1 138",
        "Satellite Number": 138,
        "Semi-Major Axis(m)": 6980739.136638005,
        "Time(s)": 0
    },
    {
        "Altitude(m)": 611934.3949694191,
        "Argument of Periapsis(deg)": 0.00010418945913296404,
        "Eccentricity": 0.0,
        "Inclination(deg)": 60.0,
        "Latitude(deg)": 58.98657265101596,
        "Longitude(deg)": 37.21516399645348,
        "Mean Anomaly(deg)": 98.80190614546183,
        "RAAN(deg)": 29.99957995086026,
        "Satellite Name": "Test1 138",
        "Satellite Number": 138,
        "Semi-Major Axis(m)": 6980739.136638005,
        "Time(s)": 10
    }
]